[{"OBJECT_NAME":"IRIDE-MS2-HEO-5","OBJECT_ID":"2025-135AV","EPOCH":"2026-03-09T22:29:41.176896","MEAN_MOTION":14.9349765,"ECCENTRICITY":0.0001273,"INCLINATION":97.7596,"RA_OF_ASC_NODE":184.3874,"ARG_OF_PERICENTER":293.2416,"MEAN_ANOMALY":66.867,"EPHEMERIS_TYPE":0,"CLASSIFICATION_TYPE":"U","NORAD_CAT_ID":64571,"ELEMENT_SET_NO":999,"REV_AT_EPOCH":3907,"BSTAR":0.00038834386,"MEAN_MOTION_DOT":4.032e-5,"MEAN_MOTION_DDOT":0},{"OBJECT_NAME":"TRACERS 2","OBJECT_ID":"2025-154E","EPOCH":"2026-03-09T22:30:20.763648","MEAN_MOTION":14.93139805,"ECCENTRICITY":0.00022565,"INCLINATION":97.68,"RA_OF_ASC_NODE":134.9823,"ARG_OF_PERICENTER":263.0994,"MEAN_ANOMALY":96.9969,"EPHEMERIS_TYPE":0,"CLASSIFICATION_TYPE":"U","NORAD_CAT_ID":64873,"ELEMENT_SET_NO":999,"REV_AT_EPOCH":3418,"BSTAR":0.0002463614,"MEAN_MOTION_DOT":2.514e-5,"MEAN_MOTION_DDOT":0}]
